STARLINK-36879          
1 67982U 26038X   26078.25002315  .00019553  00000+0  36072-3 0  9995
2 67982  97.2849  88.9830 0000979  72.6560 113.4957 15.49154564  4738
STARLINK-36867          
1 67983U 26038Y   26078.25002315 -.02874068  00000+0 -54037-1 0  9999
2 67983  97.2842  89.0186 0001530 119.7031 137.5014 15.52449442  4735
STARLINK-36266          
1 67984U 26038Z   26078.25002315 -.02336070  00000+0 -21550-1 0  9990
2 67984  97.2858  89.0813 0001717  81.1619 352.8830 15.71139400  4707
STARLINK-36802          
1 67985U 26038AA  26078.29699615  .00055729  00000+0  37193-3 0  9997
2 67985  97.2874  89.1345 0001565  87.5517 272.5927 15.75198131  4700
STARLINK-36535          
1 67986U 26039A   26078.25002315 -.01853516  00000+0 -23232-1 0  9990
2 67986  42.9998 356.7776 0001602 270.0937 119.0612 15.62041099  4413
STARLINK-36744          
1 67987U 26039B   26078.25002315 -.01854404  00000+0 -21933-1 0  9994
2 67987  42.9999 356.7061 0001560 273.9239 143.7887 15.63509276  4417
STARLINK-36734          
1 67988U 26039C   26078.25002315  .00101016  00000+0  17094-2 0  9990
2 67988  42.9999 357.7083 0001628 256.4021 115.9163 15.50516247  4413
STARLINK-36957          
1 67989U 26039D   26078.25002315 -.01851311  00000+0 -22905-1 0  9990
2 67989  43.0000 356.7301 0001482 272.4750 135.0876 15.62368500  4410
STARLINK-36951          
1 67990U 26039E   26078.25002315 -.01847922  00000+0 -26703-1 0  9995
2 67990  42.9997 356.9048 0001557 268.0285  69.2344 15.58361148  4416
STARLINK-36941          
1 67991U 26039F   26078.25002315  .00108595  00000+0  18356-2 0  9995
2 67991  43.0000 357.6986 0001222 264.9822 110.7630 15.50513247  4415
STARLINK-36950          
1 67992U 26039G   26078.25002315  .00123038  00000+0  20775-2 0  9993
2 67992  42.9997 357.3205 0002020 260.3576 268.1792 15.50480984  4411
STARLINK-36975          
1 67993U 26039H   26078.25002315 -.01972043  00000+0 -35420-1 0  9997
2 67993  42.9998 357.2264 0000906 271.3647 295.2973 15.52211364  4417
