CCSDS_OMM_VERS = 2.0
CREATION_DATE  = 
ORIGINATOR     = 

OBJECT_NAME    = STARLINK-36879
OBJECT_ID      = 2026-038X
CENTER_NAME    = EARTH
REF_FRAME      = TEME
TIME_SYSTEM    = UTC
MEAN_ELEMENT_THEORY = SGP/SGP4

EPOCH          = 2026-03-19T06:00:02.000160
MEAN_MOTION    = 15.49154564
ECCENTRICITY   = .00009793
INCLINATION    = 97.2849
RA_OF_ASC_NODE = 88.9830
ARG_OF_PERICENTER = 72.6560
MEAN_ANOMALY   = 113.4957

EPHEMERIS_TYPE = 0
CLASSIFICATION_TYPE = U
NORAD_CAT_ID   = 67982
ELEMENT_SET_NO = 999
REV_AT_EPOCH   = 473
BSTAR          = .36072071E-3
MEAN_MOTION_DOT = .19553E-3
MEAN_MOTION_DDOT = 0

CCSDS_OMM_VERS = 2.0
CREATION_DATE  = 
ORIGINATOR     = 

OBJECT_NAME    = STARLINK-36867
OBJECT_ID      = 2026-038Y
CENTER_NAME    = EARTH
REF_FRAME      = TEME
TIME_SYSTEM    = UTC
MEAN_ELEMENT_THEORY = SGP/SGP4

EPOCH          = 2026-03-19T06:00:02.000160
MEAN_MOTION    = 15.52449442
ECCENTRICITY   = .00015303
INCLINATION    = 97.2842
RA_OF_ASC_NODE = 89.0186
ARG_OF_PERICENTER = 119.7031
MEAN_ANOMALY   = 137.5014

EPHEMERIS_TYPE = 0
CLASSIFICATION_TYPE = U
NORAD_CAT_ID   = 67983
ELEMENT_SET_NO = 999
REV_AT_EPOCH   = 473
BSTAR          = -.54036723E-1
MEAN_MOTION_DOT = -.2874068E-1
MEAN_MOTION_DDOT = 0

CCSDS_OMM_VERS = 2.0
CREATION_DATE  = 
ORIGINATOR     = 

OBJECT_NAME    = STARLINK-36266
OBJECT_ID      = 2026-038Z
CENTER_NAME    = EARTH
REF_FRAME      = TEME
TIME_SYSTEM    = UTC
MEAN_ELEMENT_THEORY = SGP/SGP4

EPOCH          = 2026-03-19T06:00:02.000160
MEAN_MOTION    = 15.71139400
ECCENTRICITY   = .00017173
INCLINATION    = 97.2858
RA_OF_ASC_NODE = 89.0813
ARG_OF_PERICENTER = 81.1619
MEAN_ANOMALY   = 352.8830

EPHEMERIS_TYPE = 0
CLASSIFICATION_TYPE = U
NORAD_CAT_ID   = 67984
ELEMENT_SET_NO = 999
REV_AT_EPOCH   = 470
BSTAR          = -.21549965E-1
MEAN_MOTION_DOT = -.233607E-1
MEAN_MOTION_DDOT = 0

CCSDS_OMM_VERS = 2.0
CREATION_DATE  = 
ORIGINATOR     = 

OBJECT_NAME    = STARLINK-36802
OBJECT_ID      = 2026-038AA
CENTER_NAME    = EARTH
REF_FRAME      = TEME
TIME_SYSTEM    = UTC
MEAN_ELEMENT_THEORY = SGP/SGP4

EPOCH          = 2026-03-19T07:07:40.467360
MEAN_MOTION    = 15.75198131
ECCENTRICITY   = .00015656
INCLINATION    = 97.2874
RA_OF_ASC_NODE = 89.1345
ARG_OF_PERICENTER = 87.5517
MEAN_ANOMALY   = 272.5927

EPHEMERIS_TYPE = 0
CLASSIFICATION_TYPE = U
NORAD_CAT_ID   = 67985
ELEMENT_SET_NO = 999
REV_AT_EPOCH   = 470
BSTAR          = .37192983E-3
MEAN_MOTION_DOT = .55729E-3
MEAN_MOTION_DDOT = 0

CCSDS_OMM_VERS = 2.0
CREATION_DATE  = 
ORIGINATOR     = 

OBJECT_NAME    = STARLINK-36535
OBJECT_ID      = 2026-039A
CENTER_NAME    = EARTH
REF_FRAME      = TEME
TIME_SYSTEM    = UTC
MEAN_ELEMENT_THEORY = SGP/SGP4

EPOCH          = 2026-03-19T06:00:02.000160
MEAN_MOTION    = 15.62041099
ECCENTRICITY   = .00016028
INCLINATION    = 42.9998
RA_OF_ASC_NODE = 356.7776
ARG_OF_PERICENTER = 270.0937
MEAN_ANOMALY   = 119.0612

EPHEMERIS_TYPE = 0
CLASSIFICATION_TYPE = U
NORAD_CAT_ID   = 67986
ELEMENT_SET_NO = 999
REV_AT_EPOCH   = 441
BSTAR          = -.23232213E-1
MEAN_MOTION_DOT = -.1853516E-1
MEAN_MOTION_DDOT = 0

CCSDS_OMM_VERS = 2.0
CREATION_DATE  = 
ORIGINATOR     = 

OBJECT_NAME    = STARLINK-36744
OBJECT_ID      = 2026-039B
CENTER_NAME    = EARTH
REF_FRAME      = TEME
TIME_SYSTEM    = UTC
MEAN_ELEMENT_THEORY = SGP/SGP4

EPOCH          = 2026-03-19T06:00:02.000160
MEAN_MOTION    = 15.63509276
ECCENTRICITY   = .00015609
INCLINATION    = 42.9999
RA_OF_ASC_NODE = 356.7061
ARG_OF_PERICENTER = 273.9239
MEAN_ANOMALY   = 143.7887

EPHEMERIS_TYPE = 0
CLASSIFICATION_TYPE = U
NORAD_CAT_ID   = 67987
ELEMENT_SET_NO = 999
REV_AT_EPOCH   = 441
BSTAR          = -.21932712E-1
MEAN_MOTION_DOT = -.1854404E-1
MEAN_MOTION_DDOT = 0

CCSDS_OMM_VERS = 2.0
CREATION_DATE  = 
ORIGINATOR     = 

OBJECT_NAME    = STARLINK-36734
OBJECT_ID      = 2026-039C
CENTER_NAME    = EARTH
REF_FRAME      = TEME
TIME_SYSTEM    = UTC
MEAN_ELEMENT_THEORY = SGP/SGP4

EPOCH          = 2026-03-19T06:00:02.000160
MEAN_MOTION    = 15.50516247
ECCENTRICITY   = .00016284
INCLINATION    = 42.9999
RA_OF_ASC_NODE = 357.7083
ARG_OF_PERICENTER = 256.4021
MEAN_ANOMALY   = 115.9163

EPHEMERIS_TYPE = 0
CLASSIFICATION_TYPE = U
NORAD_CAT_ID   = 67988
ELEMENT_SET_NO = 999
REV_AT_EPOCH   = 441
BSTAR          = .17093604E-2
MEAN_MOTION_DOT = .101016E-2
MEAN_MOTION_DDOT = 0

CCSDS_OMM_VERS = 2.0
CREATION_DATE  = 
ORIGINATOR     = 

OBJECT_NAME    = STARLINK-36957
OBJECT_ID      = 2026-039D
CENTER_NAME    = EARTH
REF_FRAME      = TEME
TIME_SYSTEM    = UTC
MEAN_ELEMENT_THEORY = SGP/SGP4

EPOCH          = 2026-03-19T06:00:02.000160
MEAN_MOTION    = 15.62368500
ECCENTRICITY   = .00014827
INCLINATION    = 43.0000
RA_OF_ASC_NODE = 356.7301
ARG_OF_PERICENTER = 272.4750
MEAN_ANOMALY   = 135.0876

EPHEMERIS_TYPE = 0
CLASSIFICATION_TYPE = U
NORAD_CAT_ID   = 67989
ELEMENT_SET_NO = 999
REV_AT_EPOCH   = 441
BSTAR          = -.2290484E-1
MEAN_MOTION_DOT = -.1851311E-1
MEAN_MOTION_DDOT = 0

CCSDS_OMM_VERS = 2.0
CREATION_DATE  = 
ORIGINATOR     = 

OBJECT_NAME    = STARLINK-36951
OBJECT_ID      = 2026-039E
CENTER_NAME    = EARTH
REF_FRAME      = TEME
TIME_SYSTEM    = UTC
MEAN_ELEMENT_THEORY = SGP/SGP4

EPOCH          = 2026-03-19T06:00:02.000160
MEAN_MOTION    = 15.58361148
ECCENTRICITY   = .00015576
INCLINATION    = 42.9997
RA_OF_ASC_NODE = 356.9048
ARG_OF_PERICENTER = 268.0285
MEAN_ANOMALY   = 69.2344

EPHEMERIS_TYPE = 0
CLASSIFICATION_TYPE = U
NORAD_CAT_ID   = 67990
ELEMENT_SET_NO = 999
REV_AT_EPOCH   = 441
BSTAR          = -.26703189E-1
MEAN_MOTION_DOT = -.1847922E-1
MEAN_MOTION_DDOT = 0

CCSDS_OMM_VERS = 2.0
CREATION_DATE  = 
ORIGINATOR     = 

OBJECT_NAME    = STARLINK-36941
OBJECT_ID      = 2026-039F
CENTER_NAME    = EARTH
REF_FRAME      = TEME
TIME_SYSTEM    = UTC
MEAN_ELEMENT_THEORY = SGP/SGP4

EPOCH          = 2026-03-19T06:00:02.000160
MEAN_MOTION    = 15.50513247
ECCENTRICITY   = .00012226
INCLINATION    = 43.0000
RA_OF_ASC_NODE = 357.6986
ARG_OF_PERICENTER = 264.9822
MEAN_ANOMALY   = 110.7630

EPHEMERIS_TYPE = 0
CLASSIFICATION_TYPE = U
NORAD_CAT_ID   = 67991
ELEMENT_SET_NO = 999
REV_AT_EPOCH   = 441
BSTAR          = .18356078E-2
MEAN_MOTION_DOT = .108595E-2
MEAN_MOTION_DDOT = 0

CCSDS_OMM_VERS = 2.0
CREATION_DATE  = 
ORIGINATOR     = 

OBJECT_NAME    = STARLINK-36950
OBJECT_ID      = 2026-039G
CENTER_NAME    = EARTH
REF_FRAME      = TEME
TIME_SYSTEM    = UTC
MEAN_ELEMENT_THEORY = SGP/SGP4

EPOCH          = 2026-03-19T06:00:02.000160
MEAN_MOTION    = 15.50480984
ECCENTRICITY   = .000202
INCLINATION    = 42.9997
RA_OF_ASC_NODE = 357.3205
ARG_OF_PERICENTER = 260.3576
MEAN_ANOMALY   = 268.1792

EPHEMERIS_TYPE = 0
CLASSIFICATION_TYPE = U
NORAD_CAT_ID   = 67992
ELEMENT_SET_NO = 999
REV_AT_EPOCH   = 441
BSTAR          = .20774548E-2
MEAN_MOTION_DOT = .123038E-2
MEAN_MOTION_DDOT = 0

CCSDS_OMM_VERS = 2.0
CREATION_DATE  = 
ORIGINATOR     = 

OBJECT_NAME    = STARLINK-36975
OBJECT_ID      = 2026-039H
CENTER_NAME    = EARTH
REF_FRAME      = TEME
TIME_SYSTEM    = UTC
MEAN_ELEMENT_THEORY = SGP/SGP4

EPOCH          = 2026-03-19T06:00:02.000160
MEAN_MOTION    = 15.52211364
ECCENTRICITY   = .00009065
INCLINATION    = 42.9998
RA_OF_ASC_NODE = 357.2264
ARG_OF_PERICENTER = 271.3647
MEAN_ANOMALY   = 295.2973

EPHEMERIS_TYPE = 0
CLASSIFICATION_TYPE = U
NORAD_CAT_ID   = 67993
ELEMENT_SET_NO = 999
REV_AT_EPOCH   = 441
BSTAR          = -.35419679E-1
MEAN_MOTION_DOT = -.1972043E-1
MEAN_MOTION_DDOT = 0

